start=new Date('2023-03-26T00:00:00.000Z').valueOf();
sats=[{"MEAN_MOTION_DDOT":"0.0000000000000","TLE_LINE2":"2 52335  53.2167  19.0387 0001160  82.1509 277.9615 15.08871266 52542","LAUNCH_DATE":"2022-04-29","OBJECT_ID":"2022-045E","ELEMENT_SET_NO":"999","ARG_OF_PERICENTER":"82.1509","EPOCH":"2023-03-25T07:56:23.299872","DECAY_DATE":null,"APOAPSIS":"540.452","ECCENTRICITY":"0.00011600","PERIOD":"95.436","MEAN_MOTION_DOT":"0.00024300","OBJECT_TYPE":"PAYLOAD","TLE_LINE1":"1 52335U 22045E   23084.33082523  .00024300  00000-0  15383-2 0  9995","RA_OF_ASC_NODE":"19.0387","INCLINATION":"53.2167","GP_ID":"228872374","REF_FRAME":"TEME","REV_AT_EPOCH":"5254","SITE":"AFETR","BSTAR":"0.00153830000000","MEAN_ELEMENT_THEORY":"SGP4","TIME_SYSTEM":"UTC","CLASSIFICATION_TYPE":"U","MEAN_MOTION":"15.08871266","RCS_SIZE":"LARGE","FILE":"3871104","PERIAPSIS":"538.847","CENTER_NAME":"EARTH","NORAD_CAT_ID":"52335","SEMIMAJOR_AXIS":"6917.785","COUNTRY_CODE":"US","OBJECT_NAME":"STARLINK-3814","MEAN_ANOMALY":"277.9615","EPHEMERIS_TYPE":"0"},{"LAUNCH_DATE":"2022-04-29","TLE_LINE2":"2 52336  53.2169  19.3655 0001498  86.1791 273.9372 15.08892632 52532","MEAN_MOTION_DDOT":"0.0000000000000","DECAY_DATE":null,"ARG_OF_PERICENTER":"86.1791","EPOCH":"2023-03-25T06:11:46.262976","ELEMENT_SET_NO":"999","OBJECT_ID":"2022-045F","OBJECT_TYPE":"PAYLOAD","MEAN_MOTION_DOT":"0.00031338","PERIOD":"95.434","ECCENTRICITY":"0.00014980","APOAPSIS":"540.621","REF_FRAME":"TEME","GP_ID":"228873125","RA_OF_ASC_NODE":"19.3655","INCLINATION":"53.2169","TLE_LINE1":"1 52336U 22045F   23084.25817434  .00031338  00000-0  19755-2 0  9990","TIME_SYSTEM":"UTC","MEAN_ELEMENT_THEORY":"SGP4","BSTAR":"0.00197550000000","REV_AT_EPOCH":"5253","SITE":"AFETR","CENTER_NAME":"EARTH","PERIAPSIS":"538.548","FILE":"3871104","RCS_SIZE":"LARGE","CLASSIFICATION_TYPE":"U","MEAN_MOTION":"15.08892632","COUNTRY_CODE":"US","NORAD_CAT_ID":"52336","SEMIMAJOR_AXIS":"6917.720","EPHEMERIS_TYPE":"0","MEAN_ANOMALY":"273.9372","OBJECT_NAME":"STARLINK-3823"},{"ELEMENT_SET_NO":"999","OBJECT_ID":"2022-045G","DECAY_DATE":null,"ARG_OF_PERICENTER":"70.8696","EPOCH":"2023-03-25T06:36:53.269056","MEAN_MOTION_DDOT":"0.0000000000000","LAUNCH_DATE":"2022-04-29","TLE_LINE2":"2 52337  53.2173  19.2890 0001200  70.8696 289.2426 15.08894959 52537","GP_ID":"228871873","INCLINATION":"53.2173","RA_OF_ASC_NODE":"19.2890","TLE_LINE1":"1 52337U 22045G   23084.27561654  .00033901  00000-0  21347-2 0  9991","REF_FRAME":"TEME","ECCENTRICITY":"0.00012000","PERIOD":"95.434","APOAPSIS":"540.408","MEAN_MOTION_DOT":"0.00033901","OBJECT_TYPE":"PAYLOAD","PERIAPSIS":"538.747","FILE":"3871104","RCS_SIZE":"LARGE","CLASSIFICATION_TYPE":"U","MEAN_MOTION":"15.08894959","CENTER_NAME":"EARTH","SITE":"AFETR","REV_AT_EPOCH":"5253","TIME_SYSTEM":"UTC","MEAN_ELEMENT_THEORY":"SGP4","BSTAR":"0.00213470000000","EPHEMERIS_TYPE":"0","MEAN_ANOMALY":"289.2426","OBJECT_NAME":"STARLINK-3797","SEMIMAJOR_AXIS":"6917.712","NORAD_CAT_ID":"52337","COUNTRY_CODE":"US"},{"APOAPSIS":"525.121","PERIOD":"95.072","ECCENTRICITY":"0.00044020","MEAN_MOTION_DOT":"0.00076403","OBJECT_TYPE":"PAYLOAD","TLE_LINE1":"1 52338U 22045H   23084.32880103  .00076403  00000-0  40584-2 0  9999","INCLINATION":"53.2174","RA_OF_ASC_NODE":"17.8427","GP_ID":"228872123","REF_FRAME":"TEME","MEAN_MOTION_DDOT":"0.0000000000000","TLE_LINE2":"2 52338  53.2174  17.8427 0004402 134.7407 225.3946 15.14636696 52566","LAUNCH_DATE":"2022-04-29","OBJECT_ID":"2022-045H","ELEMENT_SET_NO":"999","EPOCH":"2023-03-25T07:53:28.408992","ARG_OF_PERICENTER":"134.7407","DECAY_DATE":null,"NORAD_CAT_ID":"52338","SEMIMAJOR_AXIS":"6900.219","COUNTRY_CODE":"US","OBJECT_NAME":"STARLINK-3815","MEAN_ANOMALY":"225.3946","EPHEMERIS_TYPE":"0","REV_AT_EPOCH":"5256","SITE":"AFETR","BSTAR":"0.00405840000000","TIME_SYSTEM":"UTC","MEAN_ELEMENT_THEORY":"SGP4","MEAN_MOTION":"15.14636696","CLASSIFICATION_TYPE":"U","RCS_SIZE":"LARGE","FILE":"3871104","PERIAPSIS":"519.046","CENTER_NAME":"EARTH"},{"SEMIMAJOR_AXIS":"6917.722","NORAD_CAT_ID":"52339","COUNTRY_CODE":"US","EPHEMERIS_TYPE":"0","OBJECT_NAME":"STARLINK-3792","MEAN_ANOMALY":"274.8989","SITE":"AFETR","REV_AT_EPOCH":"5253","TIME_SYSTEM":"UTC","MEAN_ELEMENT_THEORY":"SGP4","BSTAR":"0.00170110000000","RCS_SIZE":"LARGE","FILE":"3871104","PERIAPSIS":"538.791","CLASSIFICATION_TYPE":"U","MEAN_MOTION":"15.08891888","CENTER_NAME":"EARTH","PERIOD":"95.434","ECCENTRICITY":"0.00011510","APOAPSIS":"540.383","OBJECT_TYPE":"PAYLOAD","MEAN_MOTION_DOT":"0.00026927","GP_ID":"228872875","TLE_LINE1":"1 52339U 22045J   23084.25081470  .00026927  00000-0  17011-2 0  9997","INCLINATION":"53.2172","RA_OF_ASC_NODE":"19.3964","REF_FRAME":"TEME","MEAN_MOTION_DDOT":"0.0000000000000","LAUNCH_DATE":"2022-04-29","TLE_LINE2":"2 52339  53.2172  19.3964 0001151  85.2134 274.8989 15.08891888 52535","ELEMENT_SET_NO":"999","OBJECT_ID":"2022-045J","DECAY_DATE":null,"EPOCH":"2023-03-25T06:01:10.390080","ARG_OF_PERICENTER":"85.2134"},{"ELEMENT_SET_NO":"999","OBJECT_ID":"2022-045K","DECAY_DATE":null,"EPOCH":"2023-03-25T22:37:25.233888","ARG_OF_PERICENTER":"87.6789","MEAN_MOTION_DDOT":"0.0000000000000","LAUNCH_DATE":"2022-04-29","TLE_LINE2":"2 52340  53.2180   6.2971 0001242  87.6789 272.4346 15.08832651 52761","GP_ID":"228872625","RA_OF_ASC_NODE":"6.2971","INCLINATION":"53.2180","TLE_LINE1":"1 52340U 22045K   23084.94265317  .00010690  00000-0  68883-3 0  9993","REF_FRAME":"TEME","ECCENTRICITY":"0.00012420","PERIOD":"95.438","APOAPSIS":"540.627","OBJECT_TYPE":"PAYLOAD","MEAN_MOTION_DOT":"0.00010690","PERIAPSIS":"538.909","RCS_SIZE":"LARGE","FILE":"3871104","MEAN_MOTION":"15.08832651","CLASSIFICATION_TYPE":"U","CENTER_NAME":"EARTH","SITE":"AFETR","REV_AT_EPOCH":"5276","MEAN_ELEMENT_THEORY":"SGP4","TIME_SYSTEM":"UTC","BSTAR":"0.00068883000000","EPHEMERIS_TYPE":"0","MEAN_ANOMALY":"272.4346","OBJECT_NAME":"STARLINK-3818","SEMIMAJOR_AXIS":"6917.903","NORAD_CAT_ID":"52340","COUNTRY_CODE":"US"},{"SITE":"AFETR","REV_AT_EPOCH":"5263","BSTAR":"0.00015326000000","TIME_SYSTEM":"UTC","MEAN_ELEMENT_THEORY":"SGP4","CLASSIFICATION_TYPE":"U","MEAN_MOTION":"15.08837377","PERIAPSIS":"538.822","RCS_SIZE":"LARGE","FILE":"3871104","CENTER_NAME":"EARTH","SEMIMAJOR_AXIS":"6917.888","NORAD_CAT_ID":"52341","COUNTRY_CODE":"US","MEAN_ANOMALY":"255.2108","OBJECT_NAME":"STARLINK-3843","EPHEMERIS_TYPE":"0","MEAN_MOTION_DDOT":"0.0000000000000","TLE_LINE2":"2 52341  53.2173  16.3792 0001347 104.9034 255.2108 15.08837377 52630","LAUNCH_DATE":"2022-04-29","OBJECT_ID":"2022-045L","ELEMENT_SET_NO":"999","ARG_OF_PERICENTER":"104.9034","EPOCH":"2023-03-25T21:53:39.771168","DECAY_DATE":null,"APOAPSIS":"540.685","ECCENTRICITY":"0.00013470","PERIOD":"95.438","OBJECT_TYPE":"PAYLOAD","MEAN_MOTION_DOT":"0.00002152","RA_OF_ASC_NODE":"16.3792","INCLINATION":"53.2173","TLE_LINE1":"1 52341U 22045L   23084.91226587  .00002152  00000-0  15326-3 0  9995","GP_ID":"228871373","REF_FRAME":"TEME"},{"REV_AT_EPOCH":"5277","SITE":"AFETR","BSTAR":"-0.00062220000000","MEAN_ELEMENT_THEORY":"SGP4","TIME_SYSTEM":"UTC","MEAN_MOTION":"15.08816240","CLASSIFICATION_TYPE":"U","PERIAPSIS":"538.963","FILE":"3871104","RCS_SIZE":"LARGE","CENTER_NAME":"EARTH","SEMIMAJOR_AXIS":"6917.953","NORAD_CAT_ID":"52342","COUNTRY_CODE":"US","MEAN_ANOMALY":"271.6013","OBJECT_NAME":"STARLINK-3850","EPHEMERIS_TYPE":"0","MEAN_MOTION_DDOT":"0.0000000000000","TLE_LINE2":"2 52342  53.2180   6.3344 0001236  88.5121 271.6013 15.08816240 52770","LAUNCH_DATE":"2022-04-29","OBJECT_ID":"2022-045M","ELEMENT_SET_NO":"999","ARG_OF_PERICENTER":"88.5121","EPOCH":"2023-03-25T22:28:10.818048","DECAY_DATE":null,"APOAPSIS":"540.673","ECCENTRICITY":"0.00012360","PERIOD":"95.439","MEAN_MOTION_DOT":"-0.00010170","OBJECT_TYPE":"PAYLOAD","INCLINATION":"53.2180","RA_OF_ASC_NODE":"6.3344","TLE_LINE1":"1 52342U 22045M   23084.93623632 -.00010170  00000-0 -62220-3 0  9996","GP_ID":"228871623","REF_FRAME":"TEME"},{"REF_FRAME":"TEME","TLE_LINE1":"1 52343U 22045N   23084.94907080  .00016874  00000-0  10762-2 0  9998","RA_OF_ASC_NODE":"16.2625","INCLINATION":"53.2179","GP_ID":"228872375","MEAN_MOTION_DOT":"0.00016874","OBJECT_TYPE":"PAYLOAD","APOAPSIS":"540.661","ECCENTRICITY":"0.00012560","PERIOD":"95.439","ARG_OF_PERICENTER":"123.2855","EPOCH":"2023-03-25T22:46:39.717120","DECAY_DATE":null,"OBJECT_ID":"2022-045N","ELEMENT_SET_NO":"999","TLE_LINE2":"2 52343  53.2179  16.2625 0001256 123.2855 236.8258 15.08824636 52642","LAUNCH_DATE":"2022-04-29","MEAN_MOTION_DDOT":"0.0000000000000","OBJECT_NAME":"STARLINK-3849","MEAN_ANOMALY":"236.8258","EPHEMERIS_TYPE":"0","COUNTRY_CODE":"US","NORAD_CAT_ID":"52343","SEMIMAJOR_AXIS":"6917.927","CENTER_NAME":"EARTH","MEAN_MOTION":"15.08824636","CLASSIFICATION_TYPE":"U","RCS_SIZE":"LARGE","FILE":"3871104","PERIAPSIS":"538.923","BSTAR":"0.00107620000000","TIME_SYSTEM":"UTC","MEAN_ELEMENT_THEORY":"SGP4","SITE":"AFETR","REV_AT_EPOCH":"5264"},{"COUNTRY_CODE":"US","SEMIMAJOR_AXIS":"6917.948","NORAD_CAT_ID":"52344","MEAN_ANOMALY":"252.3716","OBJECT_NAME":"STARLINK-3851","EPHEMERIS_TYPE":"0","BSTAR":"0.00046964000000","TIME_SYSTEM":"UTC","MEAN_ELEMENT_THEORY":"SGP4","SITE":"AFETR","REV_AT_EPOCH":"5277","CENTER_NAME":"EARTH","CLASSIFICATION_TYPE":"U","MEAN_MOTION":"15.08817751","PERIAPSIS":"538.712","RCS_SIZE":"LARGE","FILE":"3871104","MEAN_MOTION_DOT":"0.00007190","OBJECT_TYPE":"PAYLOAD","APOAPSIS":"540.915","PERIOD":"95.439","ECCENTRICITY":"0.00015920","REF_FRAME":"TEME","RA_OF_ASC_NODE":"6.3937","INCLINATION":"53.2175","TLE_LINE1":"1 52344U 22045P   23084.93529688  .00007190  00000-0  46964-3 0  9997","GP_ID":"228873126","TLE_LINE2":"2 52344  53.2175   6.3937 0001592 107.7450 252.3716 15.08817751 52772","LAUNCH_DATE":"2022-04-29","MEAN_MOTION_DDOT":"0.0000000000000","EPOCH":"2023-03-25T22:26:49.650432","ARG_OF_PERICENTER":"107.7450","DECAY_DATE":null,"OBJECT_ID":"2022-045P","ELEMENT_SET_NO":"999"}];
